CCSDS_OMM_VERS = 2.0
CREATION_DATE  = 
ORIGINATOR     = 

OBJECT_NAME    = DELTA 2 R/B(1)
OBJECT_ID      = 1990-008B
CENTER_NAME    = EARTH
REF_FRAME      = TEME
TIME_SYSTEM    = UTC
MEAN_ELEMENT_THEORY = SGP/SGP4

EPOCH          = 2025-12-11T04:48:19.682784
MEAN_MOTION    = 15.45018416
ECCENTRICITY   = .01114986
INCLINATION    = 35.6071
RA_OF_ASC_NODE = 30.4745
ARG_OF_PERICENTER = 164.5816
MEAN_ANOMALY   = 195.8354

EPHEMERIS_TYPE = 0
CLASSIFICATION_TYPE = U
NORAD_CAT_ID   = 20453
ELEMENT_SET_NO = 999
REV_AT_EPOCH   = 91239
BSTAR          = .86562192E-3
MEAN_MOTION_DOT = .53783E-3
MEAN_MOTION_DDOT = 0

CCSDS_OMM_VERS = 2.0
CREATION_DATE  = 
ORIGINATOR     = 

OBJECT_NAME    = COSMOS 2058
OBJECT_ID      = 1990-010A
CENTER_NAME    = EARTH
REF_FRAME      = TEME
TIME_SYSTEM    = UTC
MEAN_ELEMENT_THEORY = SGP/SGP4

EPOCH          = 2025-12-11T04:01:56.915904
MEAN_MOTION    = 15.10443371
ECCENTRICITY   = .00082565
INCLINATION    = 82.4659
RA_OF_ASC_NODE = 134.5762
ARG_OF_PERICENTER = 279.6608
MEAN_ANOMALY   = 80.3689

EPHEMERIS_TYPE = 0
CLASSIFICATION_TYPE = U
NORAD_CAT_ID   = 20465
ELEMENT_SET_NO = 999
REV_AT_EPOCH   = 92887
BSTAR          = .44770436E-3
MEAN_MOTION_DOT = .7395E-4
MEAN_MOTION_DDOT = 0

CCSDS_OMM_VERS = 2.0
CREATION_DATE  = 
ORIGINATOR     = 

OBJECT_NAME    = SL-14 R/B
OBJECT_ID      = 1990-010B
CENTER_NAME    = EARTH
REF_FRAME      = TEME
TIME_SYSTEM    = UTC
MEAN_ELEMENT_THEORY = SGP/SGP4

EPOCH          = 2025-12-11T06:16:35.248512
MEAN_MOTION    = 14.83469399
ECCENTRICITY   = .00186213
INCLINATION    = 82.5020
RA_OF_ASC_NODE = 350.4355
ARG_OF_PERICENTER = 228.3282
MEAN_ANOMALY   = 131.6340

EPHEMERIS_TYPE = 0
CLASSIFICATION_TYPE = U
NORAD_CAT_ID   = 20466
ELEMENT_SET_NO = 999
REV_AT_EPOCH   = 91537
BSTAR          = .88356701E-4
MEAN_MOTION_DOT = .751E-5
MEAN_MOTION_DDOT = 0

CCSDS_OMM_VERS = 2.0
CREATION_DATE  = 
ORIGINATOR     = 

OBJECT_NAME    = SL-14 R/B
OBJECT_ID      = 1990-018B
CENTER_NAME    = EARTH
REF_FRAME      = TEME
TIME_SYSTEM    = UTC
MEAN_ELEMENT_THEORY = SGP/SGP4

EPOCH          = 2025-12-11T06:17:03.715584
MEAN_MOTION    = 14.82044535
ECCENTRICITY   = .00171294
INCLINATION    = 82.5208
RA_OF_ASC_NODE = 305.7458
ARG_OF_PERICENTER = 28.0268
MEAN_ANOMALY   = 332.1865

EPHEMERIS_TYPE = 0
CLASSIFICATION_TYPE = U
NORAD_CAT_ID   = 20511
ELEMENT_SET_NO = 999
REV_AT_EPOCH   = 90948
BSTAR          = .10979742E-3
MEAN_MOTION_DOT = .897E-5
MEAN_MOTION_DDOT = 0

CCSDS_OMM_VERS = 2.0
CREATION_DATE  = 
ORIGINATOR     = 

OBJECT_NAME    = HST
OBJECT_ID      = 1990-037B
CENTER_NAME    = EARTH
REF_FRAME      = TEME
TIME_SYSTEM    = UTC
MEAN_ELEMENT_THEORY = SGP/SGP4

EPOCH          = 2025-12-11T05:23:26.735136
MEAN_MOTION    = 15.28018696
ECCENTRICITY   = .00018164
INCLINATION    = 28.4689
RA_OF_ASC_NODE = 282.8025
ARG_OF_PERICENTER = 220.1397
MEAN_ANOMALY   = 139.9064

EPHEMERIS_TYPE = 0
CLASSIFICATION_TYPE = U
NORAD_CAT_ID   = 20580
ELEMENT_SET_NO = 999
REV_AT_EPOCH   = 75976
BSTAR          = .45770897E-3
MEAN_MOTION_DOT = .13114E-3
MEAN_MOTION_DDOT = 0

CCSDS_OMM_VERS = 2.0
CREATION_DATE  = 
ORIGINATOR     = 

OBJECT_NAME    = SL-16 R/B
OBJECT_ID      = 1990-046B
CENTER_NAME    = EARTH
REF_FRAME      = TEME
TIME_SYSTEM    = UTC
MEAN_ELEMENT_THEORY = SGP/SGP4

EPOCH          = 2025-12-11T02:52:46.620192
MEAN_MOTION    = 14.15001328
ECCENTRICITY   = .001183
INCLINATION    = 70.9990
RA_OF_ASC_NODE = 123.9229
ARG_OF_PERICENTER = 76.2133
MEAN_ANOMALY   = 284.0305

EPHEMERIS_TYPE = 0
CLASSIFICATION_TYPE = U
NORAD_CAT_ID   = 20625
ELEMENT_SET_NO = 999
REV_AT_EPOCH   = 83586
BSTAR          = .22004514E-4
MEAN_MOTION_DOT = -.5E-7
MEAN_MOTION_DDOT = 0

CCSDS_OMM_VERS = 2.0
CREATION_DATE  = 
ORIGINATOR     = 

OBJECT_NAME    = COSMOS 2084
OBJECT_ID      = 1990-055A
CENTER_NAME    = EARTH
REF_FRAME      = TEME
TIME_SYSTEM    = UTC
MEAN_ELEMENT_THEORY = SGP/SGP4

EPOCH          = 2025-12-11T05:44:25.663488
MEAN_MOTION    = 15.05004402
ECCENTRICITY   = .00319838
INCLINATION    = 62.7908
RA_OF_ASC_NODE = 277.1060
ARG_OF_PERICENTER = 174.4890
MEAN_ANOMALY   = 185.6569

EPHEMERIS_TYPE = 0
CLASSIFICATION_TYPE = U
NORAD_CAT_ID   = 20663
ELEMENT_SET_NO = 999
REV_AT_EPOCH   = 92300
BSTAR          = .37599337E-3
MEAN_MOTION_DOT = .5221E-4
MEAN_MOTION_DDOT = 0

CCSDS_OMM_VERS = 2.0
CREATION_DATE  = 
ORIGINATOR     = 

OBJECT_NAME    = SL-6 R/B(2)
OBJECT_ID      = 1990-055D
CENTER_NAME    = EARTH
REF_FRAME      = TEME
TIME_SYSTEM    = UTC
MEAN_ELEMENT_THEORY = SGP/SGP4

EPOCH          = 2025-12-10T20:06:43.511040
MEAN_MOTION    = 15.03061570
ECCENTRICITY   = .0012523
INCLINATION    = 62.7824
RA_OF_ASC_NODE = 195.8776
ARG_OF_PERICENTER = 307.3947
MEAN_ANOMALY   = 52.6012

EPHEMERIS_TYPE = 0
CLASSIFICATION_TYPE = U
NORAD_CAT_ID   = 20666
ELEMENT_SET_NO = 999
REV_AT_EPOCH   = 92483
BSTAR          = .2282E-3
MEAN_MOTION_DOT = .2898E-4
MEAN_MOTION_DDOT = 0

CCSDS_OMM_VERS = 2.0
CREATION_DATE  = 
ORIGINATOR     = 

OBJECT_NAME    = SL-8 R/B
OBJECT_ID      = 1990-078B
CENTER_NAME    = EARTH
REF_FRAME      = TEME
TIME_SYSTEM    = UTC
MEAN_ELEMENT_THEORY = SGP/SGP4

EPOCH          = 2025-12-11T05:59:28.552128
MEAN_MOTION    = 14.85845975
ECCENTRICITY   = .03725969
INCLINATION    = 82.9053
RA_OF_ASC_NODE = 330.6444
ARG_OF_PERICENTER = 310.9282
MEAN_ANOMALY   = 46.0218

EPHEMERIS_TYPE = 0
CLASSIFICATION_TYPE = U
NORAD_CAT_ID   = 20775
ELEMENT_SET_NO = 999
REV_AT_EPOCH   = 79615
BSTAR          = .11011481E-2
MEAN_MOTION_DOT = .35592E-3
MEAN_MOTION_DDOT = 0

CCSDS_OMM_VERS = 2.0
CREATION_DATE  = 
ORIGINATOR     = 

OBJECT_NAME    = SL-8 R/B
OBJECT_ID      = 1991-006B
CENTER_NAME    = EARTH
REF_FRAME      = TEME
TIME_SYSTEM    = UTC
MEAN_ELEMENT_THEORY = SGP/SGP4

EPOCH          = 2025-12-11T05:40:54.424128
MEAN_MOTION    = 13.77489646
ECCENTRICITY   = .00212584
INCLINATION    = 82.9430
RA_OF_ASC_NODE = 235.8307
ARG_OF_PERICENTER = 284.3443
MEAN_ANOMALY   = 192.8008

EPHEMERIS_TYPE = 0
CLASSIFICATION_TYPE = U
NORAD_CAT_ID   = 21088
ELEMENT_SET_NO = 999
REV_AT_EPOCH   = 75189
BSTAR          = .55203107E-4
MEAN_MOTION_DOT = .7E-6
MEAN_MOTION_DDOT = 0

CCSDS_OMM_VERS = 2.0
CREATION_DATE  = 
ORIGINATOR     = 

OBJECT_NAME    = OKEAN-3
OBJECT_ID      = 1991-039A
CENTER_NAME    = EARTH
REF_FRAME      = TEME
TIME_SYSTEM    = UTC
MEAN_ELEMENT_THEORY = SGP/SGP4

EPOCH          = 2025-12-11T06:50:34.896768
MEAN_MOTION    = 15.04102638
ECCENTRICITY   = .00128322
INCLINATION    = 82.5168
RA_OF_ASC_NODE = 62.4549
ARG_OF_PERICENTER = 271.9442
MEAN_ANOMALY   = 88.0315

EPHEMERIS_TYPE = 0
CLASSIFICATION_TYPE = U
NORAD_CAT_ID   = 21397
ELEMENT_SET_NO = 999
REV_AT_EPOCH   = 85174
BSTAR          = .42133872E-3
MEAN_MOTION_DOT = .5872E-4
MEAN_MOTION_DDOT = 0

CCSDS_OMM_VERS = 2.0
CREATION_DATE  = 
ORIGINATOR     = 

OBJECT_NAME    = COSMOS 2151
OBJECT_ID      = 1991-042A
CENTER_NAME    = EARTH
REF_FRAME      = TEME
TIME_SYSTEM    = UTC
MEAN_ELEMENT_THEORY = SGP/SGP4

EPOCH          = 2025-12-11T05:19:44.767488
MEAN_MOTION    = 14.99678638
ECCENTRICITY   = .0012667
INCLINATION    = 82.4961
RA_OF_ASC_NODE = 168.9660
ARG_OF_PERICENTER = 4.9444
MEAN_ANOMALY   = 355.1902

EPHEMERIS_TYPE = 0
CLASSIFICATION_TYPE = U
NORAD_CAT_ID   = 21422
ELEMENT_SET_NO = 999
REV_AT_EPOCH   = 84993
BSTAR          = .2235535E-3
MEAN_MOTION_DOT = .2786E-4
MEAN_MOTION_DDOT = 0

