DELTA 2 R/B(1)          
1 20453U 90008B   25345.20022781  .00053783  00000+0  86562-3 0  9997
2 20453  35.6071  30.4745 0111498 164.5816 195.8354 15.45018416912390
COSMOS 2058             
1 20465U 90010A   25345.16801986  .00007395  00000+0  44770-3 0  9993
2 20465  82.4659 134.5762 0008256 279.6608  80.3689 15.10443371928877
SL-14 R/B               
1 20466U 90010B   25345.26151908  .00000751  00000+0  88357-4 0  9996
2 20466  82.5020 350.4355 0018621 228.3282 131.6340 14.83469399915376
SL-14 R/B               
1 20511U 90018B   25345.26184856  .00000897  00000+0  10980-3 0  9990
2 20511  82.5208 305.7458 0017129  28.0268 332.1865 14.82044535909488
HST                     
1 20580U 90037B   25345.22461499  .00013114  00000+0  45771-3 0  9996
2 20580  28.4689 282.8025 0001816 220.1397 139.9064 15.28018696759763
SL-16 R/B               
1 20625U 90046B   25345.11998403 -.00000005  00000+0  22005-4 0  9996
2 20625  70.9990 123.9229 0011830  76.2133 284.0305 14.15001328835861
COSMOS 2084             
1 20663U 90055A   25345.23918592  .00005221  00000+0  37599-3 0  9999
2 20663  62.7908 277.1060 0031983 174.4890 185.6569 15.05004402923006
SL-6 R/B(2)             
1 20666U 90055D   25344.83800360  .00002898  00000+0  22820-3 0  9998
2 20666  62.7824 195.8776 0012523 307.3947  52.6012 15.03061570924830
SL-8 R/B                
1 20775U 90078B   25345.24963602  .00035592  00000+0  11011-2 0  9995
2 20775  82.9053 330.6444 0372596 310.9282  46.0218 14.85845975796156
SL-8 R/B                
1 21088U 91006B   25345.23674102  .00000070  00000+0  55203-4 0  9994
2 21088  82.9430 235.8307 0021258 284.3443 192.8008 13.77489646751894
OKEAN-3                 
1 21397U 91039A   25345.28512612  .00005872  00000+0  42134-3 0  9998
2 21397  82.5168  62.4549 0012832 271.9442  88.0315 15.04102638851749
COSMOS 2151             
1 21422U 91042A   25345.22204592  .00002786  00000+0  22355-3 0  9994
2 21422  82.4961 168.9660 0012667   4.9444 355.1902 14.99678638849935
